BEIDOU-2 IGSO-1 (C06)   
1 36828U 10036A   24162.53662387 -.00000073  00000+0  00000+0 0  9991
2 36828  54.2519 169.6219 0042057 207.2023 183.0457  1.00284904 50824
BEIDOU-2 G4 (C04)       
1 37210U 10057A   24162.54910687 -.00000112  00000+0  00000+0 0  9994
2 37210   1.8305  68.7360 0003251 169.5982  18.8066  1.00271582 49900
BEIDOU-2 IGSO-2 (C07)   
1 37256U 10068A   24162.03347002 -.00000207  00000+0  00000+0 0  9990
2 37256  48.8922 280.9080 0035567 209.0708 246.4238  1.00252532 49403
BEIDOU-2 IGSO-3 (C08)   
1 37384U 11013A   24162.51297988 -.00000196  00000+0  00000+0 0  9990
2 37384  61.3422  47.1742 0026207 175.3703 328.5572  1.00260581 48279
BEIDOU-2 IGSO-4 (C09)   
1 37763U 11038A   24162.42451931  .00000003  00000+0  00000+0 0  9994
2 37763  54.5575 172.2328 0125688 229.0572 105.5687  1.00260925 47256
BEIDOU-2 IGSO-5 (C10)   
1 37948U 11073A   24162.03836354 -.00000207  00000+0  00000+0 0  9998
2 37948  49.0244 280.5943 0100251 219.8749 225.1101  1.00295396 45743
BEIDOU-2 G5 (C05)       
1 38091U 12008A   24162.51133595  .00000057  00000+0  00000+0 0  9999
2 38091   2.0609  70.8391 0005899 270.2918 160.9737  1.00269066 44986
BEIDOU-2 M3 (C11)       
1 38250U 12018A   24161.95235205 -.00000095  00000+0  00000+0 0  9998
2 38250  56.3438 329.5820 0020771 262.9194  96.8330  1.86231374 82215
BEIDOU-2 M4 (C12)       
1 38251U 12018B   24162.41953761 -.00000093  00000+0  00000+0 0  9993
2 38251  56.2506 328.8385 0011657 264.9547  94.9014  1.86232089 82229
BEIDOU-2 M6 (C14)       
1 38775U 12050B   24162.12903754 -.00000035  00000+0  00000+0 0  9991
2 38775  55.9077  87.3988 0014137 338.8308  21.0995  1.86231206 79581
BEIDOU-2 G6 (C02)       
1 38953U 12059A   24162.58792294 -.00000177  00000+0  00000+0 0  9990
2 38953   2.5442  80.5534 0009910 314.8652 159.6837  1.00274065 42527
BEIDOU-3S IGSO-1S (C31) 
1 40549U 15019A   24162.37454549 -.00000163  00000+0  00000+0 0  9993
2 40549  50.5865 304.2698 0038355 191.8292 348.7895  1.00252046 33685
BEIDOU-3S M2S (C58)     
1 40748U 15037A   24162.08288149 -.00000095  00000+0  00000+0 0  9997
2 40748  55.4830 327.2751 0008259 248.6108 111.2886  1.86233314 60396
BEIDOU-3S M1S (C57)     
1 40749U 15037B   24161.27936494 -.00000097  00000+0  00000+0 0  9993
2 40749  55.4866 327.2894 0003521   2.0953 357.8921  1.86233031 60384
BEIDOU-3S IGSO-2S (C56) 
1 40938U 15053A   24162.03480684 -.00000142  00000+0  00000+0 0  9992
2 40938  50.3685 267.4884 0052638 189.5888 270.0688  1.00264184 31969
BEIDOU-2 IGSO-6 (C13)   
1 41434U 16021A   24162.49222375 -.00000173  00000+0  00000+0 0  9995
2 41434  59.1676  45.4141 0047739 223.2014 263.8321  1.00272581 30098
BEIDOU-2 G7 (C03)       
1 41586U 16037A   24162.45538351 -.00000354  00000+0  00000+0 0  9991
2 41586   1.8919  69.5999 0009365   7.1374  96.8684  1.00264927 29403
BEIDOU-3 M1 (C19)       
1 43001U 17069A   24161.35812492 -.00000039  00000+0  00000+0 0  9990
2 43001  56.0579  87.5195 0011097 309.0220  50.8642  1.86231552 44861
BEIDOU-3 M2 (C20)       
1 43002U 17069B   24162.36925857 -.00000033  00000+0  00000+0 0  9997
2 43002  56.0576  87.5225 0009275 331.0738  28.8646  1.86231109 44875
BEIDOU-3 M7 (C27)       
1 43107U 18003A   24162.11843344 -.00000096  00000+0  00000+0 0  9994
2 43107  54.9409 327.8679 0004867  75.9300 284.1124  1.86232605 43629
BEIDOU-3 M8 (C28)       
1 43108U 18003B   24162.05880508 -.00000097  00000+0  00000+0 0  9992
2 43108  54.9340 327.8555 0002526 254.4675 105.4927  1.86231053 43639
BEIDOU-3 M4 (C22)       
1 43207U 18018A   24161.42620290 -.00000039  00000+0  00000+0 0  9994
2 43207  56.0167  87.6067 0007124 355.3577   4.6207  1.86231487 43002
BEIDOU-3 M3 (C21)       
1 43208U 18018B   24162.02974323 -.00000035  00000+0  00000+0 0  9997
2 43208  56.0166  87.5910 0009085 321.3807  38.5425  1.86231414 43014
BEIDOU-3 M9 (C29)       
1 43245U 18029A   24161.71408923 -.00000096  00000+0  00000+0 0  9990
2 43245  54.8246 325.5898 0000577 125.9081 234.0830  1.86232818 42166
BEIDOU-3 M10 (C30)      
1 43246U 18029B   24162.18072289 -.00000095  00000+0  00000+0 0  9994
2 43246  54.8218 325.6022 0003791  22.9532 337.0505  1.86233026 42158
BEIDOU-2 IGSO-7 (C16)   
1 43539U 18057A   24162.62382250 -.00000075  00000+0  00000+0 0  9999
2 43539  55.1413 169.4246 0075442 233.7005 191.9600  1.00255305 21751
BEIDOU-3 M5 (C23)       
1 43581U 18062A   24162.40369670  .00000022  00000+0  00000+0 0  9990
2 43581  54.1328 207.3650 0005133 274.0511  85.9656  1.86228865 39918
BEIDOU-3 M6 (C24)       
1 43582U 18062B   24162.26960106  .00000022  00000+0  00000+0 0  9996
2 43582  54.1324 207.3590 0004116 359.4763   0.5992  1.86229691 39919
BEIDOU-3 M12 (C26)      
1 43602U 18067A   24161.66606763  .00000027  00000+0  00000+0 0  9998
2 43602  54.2230 206.0604 0006641  18.4566 341.6450  1.86231747 39383
BEIDOU-3 M11 (C25)      
1 43603U 18067B   24162.33695187  .00000023  00000+0  00000+0 0  9998
2 43603  54.2199 206.0027 0003646   0.5325 359.5424  1.86231648 39428
BEIDOU-3 M13 (C32)      
1 43622U 18072A   24162.29783689 -.00000035  00000+0  00000+0 0  9999
2 43622  55.9881  87.1096 0007616 308.7335  51.1886  1.86231626 38932
BEIDOU-3 M14 (C33)      
1 43623U 18072B   24162.16329321 -.00000035  00000+0  00000+0 0  9995
2 43623  55.9898  87.1072 0005891 335.0391  24.9219  1.86231602 38924
BEIDOU-3 M16 (C35)      
1 43647U 18078A   24161.25213176 -.00000097  00000+0  00000+0 0  9994
2 43647  54.7215 325.7056 0007189  24.3869 335.6319  1.86232342 38423
BEIDOU-3 M15 (C34)      
1 43648U 18078B   24161.91826265 -.00000096  00000+0  00000+0 0  9996
2 43648  54.7168 325.6854 0004353  40.1826 319.8358  1.86232393 38451
BEIDOU-3 G1 (C59)       
1 43683U 18085A   24162.59902039 -.00000278  00000+0  00000+0 0  9994
2 43683   2.1765 109.8220 0003655 346.3954 158.7897  1.00277034 20676
BEIDOU-3 M17 (C36)      
1 43706U 18093A   24161.53156656  .00000027  00000+0  00000+0 0  9999
2 43706  54.2159 207.3325 0010020 279.2917  80.6741  1.86228483 37806
BEIDOU-3 M18 (C37)      
1 43707U 18093B   24162.47086892  .00000022  00000+0  00000+0 0  9993
2 43707  54.2164 207.2924 0007884 304.6188  55.3820  1.86229994 37810
BEIDOU-3 IGSO-1 (C38)   
1 44204U 19023A   24162.58684115 -.00000229  00000+0  00000+0 0  9994
2 44204  57.6329  45.2914 0018723 210.2259 331.0621  1.00251733 18956
BEIDOU-2 G8 (C01)       
1 44231U 19027A   24162.52066515 -.00000250  00000+0  00000+0 0  9994
2 44231   1.9333  73.8862 0002872 152.7831   4.5425  1.00267319 18698
BEIDOU-3 IGSO-2 (C39)   
1 44337U 19035A   24157.45853507 -.00000053  00000+0  00000+0 0  9992
2 44337  55.1771 165.3705 0033237 210.0015 158.9733  1.00244537 18239
BEIDOU-3 M24 (C46)      
1 44542U 19061A   24162.54049949  .00000021  00000+0  00000+0 0  9996
2 44542  54.4433 207.5834 0007550 342.8919  17.1579  1.86231335 32070
BEIDOU-3 M23 (C45)      
1 44543U 19061B   24162.24911569  .00000023  00000+0  00000+0 0  9992
2 44543  54.4419 207.5620 0005147 321.5938 115.3550  1.86231789 32065
BEIDOU-3 IGSO-3 (C40)   
1 44709U 19073A   24161.76011512 -.00000205  00000+0  00000+0 0  9997
2 44709  56.0635 288.8051 0038742 181.4531 178.4965  1.00251779 17066
BEIDOU-3 M22 (C44)      
1 44793U 19078A   24161.84931660 -.00000096  00000+0  00000+0 0  9997
2 44793  54.5689 325.6179 0006258  33.1612 326.8640  1.86232281 30911
BEIDOU-3 M21 (C43)      
1 44794U 19078B   24161.97912402 -.00000096  00000+0  00000+0 0  9995
2 44794  54.5426 325.5896 0004030  32.2225 327.7885  1.86232750 30925
BEIDOU-3 M19 (C41)      
1 44864U 19090A   24162.45932167 -.00000034  00000+0  00000+0 0  9993
2 44864  55.9228  87.2752 0018230 285.5969 229.2270  1.86231874 30511
BEIDOU-3 M20 (C42)      
1 44865U 19090B   24162.28376356 -.00000034  00000+0  00000+0 0  9997
2 44865  55.9243  87.3145 0016315 298.8361 188.0197  1.86231784 30498
BEIDOU-3 G2 (C60)       
1 45344U 20017A   24162.58713973 -.00000142  00000+0  00000+0 0  9994
2 45344   2.3085  29.4066 0001066 105.4433  55.9768  1.00272327 15875
BEIDOU-3 G3 (C61)       
1 45807U 20040A   24162.58378128 -.00000354  00000+0  00000+0 0  9998
2 45807   0.7672  41.5743 0005438 283.6368 254.9121  1.00275288 14684
BEIDOU-3 G4             
1 56564U 23066A   24162.53521681 -.00000111  00000+0  00000+0 0  9991
2 56564   2.1385 288.2190 0005320 199.7956 124.0605  1.00271052  4003
BEIDOU-3 M25            
1 58654U 23207A   24162.06186028 -.00000037  00000+0  00000+0 0  9997
2 58654  55.1050  87.3099 0003498 307.5521  52.4043  1.86232417  3116
BEIDOU-3 M26            
1 58655U 23207B   24162.39776183 -.00000035  00000+0  00000+0 0  9999
2 58655  55.1072  87.2838 0003807 284.8946  75.0530  1.86232035  3100
